{"type":"FeatureCollection","name":"heatsafe_hanoi_operator_districts","license":"CC BY 3.0 IGO","attribution":"geoBoundaries gbOpen VNM ADM2 (2020), source: OCHA ROAP and Government of Viet Nam; filtered for HeatSafe operator areas.","features":[{"type":"Feature","properties":{"zone_id":"ba-dinh","district_name":"Ba Dinh","source_shape_id":"81297802B78295235973409"},"geometry":{"type":"Polygon","coordinates":[[[105.85701490900004,21.04273301300003],[105.84915372600005,21.05356506800007],[105.84227634200005,21.048666900000057],[105.84011374700003,21.050719319000052],[105.83668884300005,21.046764418000066],[105.83624201200007,21.04164717200007],[105.83103443100003,21.04171530800005],[105.82849682300008,21.039590169000064],[105.81549182700007,21.04257725900004],[105.81086633400008,21.04619830200005],[105.80604832700004,21.04760654300003],[105.80628752900009,21.037071867000066],[105.80127860600004,21.030221939000057],[105.80713929800004,21.027799609000056],[105.80691258900004,21.025589033000074],[105.80875735600006,21.025424318000034],[105.80970667700007,21.02691991200004],[105.81182356100004,21.022728810000046],[105.81077087800008,21.018620045000034],[105.81581277500004,21.01600400600006],[105.82002129300008,21.019203490000052],[105.82107608000007,21.023169117000066],[105.81992260600003,21.023612394000054],[105.82940391400007,21.03195041200007],[105.83036693800005,21.03001759500006],[105.83246348800009,21.031461301000036],[105.84177151100005,21.02813493700006],[105.84393207500005,21.030130172000042],[105.84527294300005,21.039423191000026],[105.85701490900004,21.04273301300003]]]}},{"type":"Feature","properties":{"zone_id":"bac-tu-liem","district_name":"Bac Tu Liem","source_shape_id":"81297802B3906213091507"},"geometry":{"type":"Polygon","coordinates":[[[105.79599535600005,21.097915741000065],[105.74873781400004,21.097846503000028],[105.73720806900008,21.104867339000066],[105.72946168300007,21.099519994000048],[105.72594978400008,21.098981336000065],[105.72495041100007,21.096525732000032],[105.72706480300008,21.093316525000034],[105.72622248200008,21.085698539000077],[105.72781274600004,21.08183463100005],[105.72251066000007,21.073674434000054],[105.71989325200008,21.07230624400006],[105.71867072100008,21.07484148900005],[105.71718254000007,21.071294756000043],[105.72060313500003,21.06958666400004],[105.72847085400008,21.061495687000047],[105.72962273500008,21.056524608000075],[105.73317716000008,21.053991937000035],[105.73724538900007,21.04416847500005],[105.73884839500005,21.044967202000066],[105.74702379100006,21.042080458000044],[105.75329600900005,21.038100365000048],[105.75846446200006,21.037992994000035],[105.76149682200008,21.041692156000067],[105.76780791100003,21.039587229000063],[105.77470152200004,21.04844861600003],[105.78000205100005,21.049375094000027],[105.78181373300004,21.044480452000073],[105.78637220900004,21.044293864000053],[105.78639029000004,21.04605480300006],[105.79027978700009,21.046047981000072],[105.79010096100006,21.04785846300007],[105.78788926500005,21.04730100300003],[105.78705875100007,21.049928172000023],[105.78886004100008,21.053001118000054],[105.79142687700005,21.049726065000073],[105.79163735600008,21.046060246000025],[105.79459109900006,21.046060246000025],[105.79378471300004,21.04954628400003],[105.79499973200006,21.050322916000027],[105.79990595500004,21.05542825200007],[105.79664823100006,21.057986628000037],[105.80506289700008,21.065894144000026],[105.80315382800006,21.068331514000022],[105.80391014800006,21.072313611000027],[105.79995590300007,21.073837170000047],[105.79956356500008,21.079810171000076],[105.79616974800007,21.080524839000077],[105.79385772000006,21.079424867000057],[105.79333023600009,21.09007308300005],[105.79166332400007,21.090232597000067],[105.79599535600005,21.097915741000065]]]}},{"type":"Feature","properties":{"zone_id":"cau-giay","district_name":"Cau Giay","source_shape_id":"81297802B81208073820584"},"geometry":{"type":"Polygon","coordinates":[[[105.80604832700004,21.04760654300003],[105.80909504800007,21.052373842000065],[105.80886440600005,21.059234837000076],[105.80797833900004,21.056192370000076],[105.80514026200007,21.055342731000053],[105.80659658000008,21.054261693000058],[105.80108760500008,21.048854148000032],[105.79820399800008,21.04717210700005],[105.79499973200006,21.050322916000027],[105.79378471300004,21.04954628400003],[105.79459109900006,21.046060246000025],[105.79163735600008,21.046060246000025],[105.79142687700005,21.049726065000073],[105.78886004100008,21.053001118000054],[105.78705875100007,21.049928172000023],[105.78788926500005,21.04730100300003],[105.79010096100006,21.04785846300007],[105.79027978700009,21.046047981000072],[105.78639029000004,21.04605480300006],[105.78637220900004,21.044293864000053],[105.78181373300004,21.044480452000073],[105.78000205100005,21.049375094000027],[105.77470152200004,21.04844861600003],[105.76780791100003,21.039587229000063],[105.76859480000007,21.036013300000036],[105.77390910200006,21.03426332600003],[105.77347251400005,21.032610715000033],[105.78185313600005,21.031288047000032],[105.78182051300007,21.029126629000075],[105.78406410100007,21.029277966000052],[105.78328249000003,21.020196912000074],[105.78957506600005,21.013180981000062],[105.78840004400007,21.012112009000077],[105.79065458000008,21.008144943000048],[105.78914324600004,21.00706984900006],[105.79271122200004,21.001058147000037],[105.80606843300006,21.00777491200006],[105.81112759900009,21.007015540000054],[105.81353920800007,21.008869725000068],[105.80424104200006,21.01570300900005],[105.79771402300008,21.024166990000026],[105.80127860600004,21.030221939000057],[105.80628752900009,21.037071867000066],[105.80604832700004,21.04760654300003]]]}},{"type":"Feature","properties":{"zone_id":"dong-da","district_name":"Dong Da","source_shape_id":"81297802B63935781650096"},"geometry":{"type":"Polygon","coordinates":[[[105.80127860600004,21.030221939000057],[105.79771402300008,21.024166990000026],[105.80424104200006,21.01570300900005],[105.81353920800007,21.008869725000068],[105.81819283500005,21.001673289000053],[105.82021584800003,21.003135823000036],[105.84270977400007,20.997292327000025],[105.84133556400008,21.000372463000076],[105.84093050300004,21.021589380000023],[105.84177151100005,21.02813493700006],[105.83246348800009,21.031461301000036],[105.83036693800005,21.03001759500006],[105.82940391400007,21.03195041200007],[105.81992260600003,21.023612394000054],[105.82107608000007,21.023169117000066],[105.82002129300008,21.019203490000052],[105.81581277500004,21.01600400600006],[105.81077087800008,21.018620045000034],[105.81182356100004,21.022728810000046],[105.80970667700007,21.02691991200004],[105.80875735600006,21.025424318000034],[105.80691258900004,21.025589033000074],[105.80713929800004,21.027799609000056],[105.80127860600004,21.030221939000057]]]}},{"type":"Feature","properties":{"zone_id":"ha-dong","district_name":"Ha Dong","source_shape_id":"81297802B46977673973725"},"geometry":{"type":"Polygon","coordinates":[[[105.73473324400004,20.91086425700007],[105.73666823600007,20.913310050000064],[105.74160162700008,20.912707031000025],[105.74189370600004,20.91504924000003],[105.75094792800007,20.916554682000026],[105.75086669400008,20.92585966400003],[105.74968332000009,20.925632887000063],[105.74942850800005,20.929166407000025],[105.75144523900008,20.928608765000035],[105.75228439700004,20.93118544400005],[105.75789052400006,20.92973729700003],[105.75767250000007,20.932392780000043],[105.76139613900006,20.930148847000055],[105.76064637700006,20.928958255000055],[105.76700034100008,20.922940551000067],[105.77606778000006,20.927080285000045],[105.77541095100008,20.929267252000045],[105.78379689800005,20.93137408900003],[105.78579001300005,20.934991066000066],[105.78564602800009,20.939344325000036],[105.78941802900005,20.939311108000027],[105.78816506400005,20.94108569800005],[105.79126381100008,20.94181317500005],[105.79431752400006,20.95497606600003],[105.80439710000007,20.958958],[105.79194652400008,20.965674340000078],[105.79292627400008,20.96709729500003],[105.79028324000006,20.968944798000052],[105.79325485600003,20.970677575000025],[105.79410488300005,20.973534925000024],[105.79993935800007,20.974934993000034],[105.79852153700006,20.978129159000048],[105.79498646200005,20.98012357400006],[105.79639751400003,20.98330089800004],[105.79451351600005,20.985474733000046],[105.78694959700005,20.98548880100003],[105.78490901600009,20.986303392000025],[105.79016808600005,20.986327403000075],[105.78719399500005,20.986846764000063],[105.78473750000006,20.98923266500003],[105.78353201600004,20.98668440700004],[105.78059440900006,20.98856472700004],[105.77801400700008,20.98413369700006],[105.77541563500006,20.98594208700007],[105.77131344400004,20.985761248000074],[105.76742963300006,20.983142110000074],[105.76600195700007,20.984373481000034],[105.76494917900004,20.980269452000073],[105.76245317500008,20.97910678200003],[105.75971925200008,20.980602530000056],[105.75962358500004,20.98232867400003],[105.75769292500007,20.98107053500007],[105.75805918800006,20.984453856000073],[105.75621225900005,20.98888033000003],[105.74468002400005,20.993645167000068],[105.74390449700007,20.995430331000023],[105.73863871200007,20.99474147500007],[105.73750127500006,20.996884496000064],[105.73549594500008,20.995852625000055],[105.73522008700007,20.99686121700006],[105.72971021200004,20.994852464000076],[105.73121755800008,20.99312289100004],[105.72984890600009,20.99164518500004],[105.73047920000005,20.990366400000028],[105.73303999300003,20.990295900000035],[105.73536727000004,20.98650479500003],[105.74152747200009,20.984243160000062],[105.74081520200008,20.974350180000044],[105.73885997300005,20.970526644000074],[105.74320914400005,20.964266345000055],[105.73947323600004,20.96256418200005],[105.73742008500005,20.96331805400007],[105.73134493900005,20.95969685700004],[105.73035746200009,20.960862793000047],[105.72493229100007,20.955485211000052],[105.72504880500009,20.951139005000073],[105.71323724000007,20.944313642000054],[105.71119090400003,20.93935246600006],[105.71373034300007,20.935958220000032],[105.70622558500008,20.933525755000062],[105.70541180900005,20.931484177000073],[105.70843611400005,20.927437027000053],[105.71585221500004,20.928505365000035],[105.72709016000005,20.92453973000005],[105.72453683300006,20.91534149100005],[105.73473324400004,20.91086425700007]]]}},{"type":"Feature","properties":{"zone_id":"hai-ba-trung","district_name":"Hai Ba Trung","source_shape_id":"81297802B70315889029707"},"geometry":{"type":"Polygon","coordinates":[[[105.84270977400007,20.997292327000025],[105.84115576300007,20.99155906900006],[105.84314620700007,20.99123804000004],[105.84451818200006,20.994266183000036],[105.84915596600007,20.991022500000042],[105.85149309200006,20.991549746000032],[105.85049014800006,20.992872238000075],[105.85215901300006,20.994055632000027],[105.85717541200006,20.99327844800007],[105.85983778900004,20.995456182000055],[105.86133437700005,20.994941048000044],[105.86102349100008,20.99304426200007],[105.86258275700004,20.993312211000045],[105.86220442200005,20.996503068000038],[105.86664283800008,20.995109024000044],[105.86668840400006,20.99379585500003],[105.87576811700006,20.99424047800005],[105.87583921400005,20.996992445000046],[105.87776538800006,20.997312412000042],[105.87839723900004,20.999502380000024],[105.87534711800004,21.00112296100008],[105.87547578100003,21.002335678000065],[105.87951159700003,21.00076632100007],[105.88292378000006,21.002328077000072],[105.87790300900008,21.004077734000077],[105.87354512800005,21.007582941000067],[105.86775985300005,21.020912983000073],[105.86204250100008,21.018502961000024],[105.85446894900008,21.018080955000073],[105.84438835200007,21.01998029400005],[105.84236245200009,21.022419120000052],[105.84093050300004,21.021589380000023],[105.84133556400008,21.000372463000076],[105.84270977400007,20.997292327000025]]]}},{"type":"Feature","properties":{"zone_id":"hoan-kiem","district_name":"Hoan Kiem","source_shape_id":"81297802B21956500009646"},"geometry":{"type":"Polygon","coordinates":[[[105.84177151100005,21.02813493700006],[105.84093050300004,21.021589380000023],[105.84236245200009,21.022419120000052],[105.84438835200007,21.01998029400005],[105.85446894900008,21.018080955000073],[105.86204250100008,21.018502961000024],[105.86775985300005,21.020912983000073],[105.86318898600007,21.033214257000054],[105.85701490900004,21.04273301300003],[105.84527294300005,21.039423191000026],[105.84393207500005,21.030130172000042],[105.84177151100005,21.02813493700006]]]}},{"type":"Feature","properties":{"zone_id":"hoang-mai","district_name":"Hoang Mai","source_shape_id":"81297802B90742047749751"},"geometry":{"type":"Polygon","coordinates":[[[105.90036835900008,20.99432945700005],[105.89106667400006,21.000354439000034],[105.88292378000006,21.002328077000072],[105.87951159700003,21.00076632100007],[105.87547578100003,21.002335678000065],[105.87534711800004,21.00112296100008],[105.87839723900004,20.999502380000024],[105.87776538800006,20.997312412000042],[105.87583921400005,20.996992445000046],[105.87576811700006,20.99424047800005],[105.86668840400006,20.99379585500003],[105.86664283800008,20.995109024000044],[105.86220442200005,20.996503068000038],[105.86258275700004,20.993312211000045],[105.86102349100008,20.99304426200007],[105.86133437700005,20.994941048000044],[105.85983778900004,20.995456182000055],[105.85717541200006,20.99327844800007],[105.85215901300006,20.994055632000027],[105.85049014800006,20.992872238000075],[105.85149309200006,20.991549746000032],[105.84915596600007,20.991022500000042],[105.84451818200006,20.994266183000036],[105.84314620700007,20.99123804000004],[105.84115576300007,20.99155906900006],[105.84105661000007,20.98549898400006],[105.83661228200003,20.98354781000006],[105.83057707700004,20.992700712000044],[105.82680529500004,20.99262096700005],[105.82393967200005,20.989756259000046],[105.82457887500004,20.988414396000053],[105.81928190000008,20.985017706000065],[105.81834694100007,20.980733646000033],[105.81568503800008,20.983216482000046],[105.81340455100008,20.980703611000024],[105.81085925600007,20.981203392000054],[105.80878734400005,20.983998830000075],[105.80810640800007,20.97950251700007],[105.80974103800008,20.97922152500007],[105.80736737400008,20.973800485000027],[105.81513765600005,20.970284270000036],[105.81795553500007,20.971899044000054],[105.82496184500008,20.971796530000063],[105.82377509900004,20.96818558500007],[105.81773602700008,20.963017396000055],[105.81678033600008,20.95986365600004],[105.82006314000006,20.957449457000052],[105.82588806100006,20.956378700000073],[105.83132908700009,20.952713549000066],[105.83142456100006,20.954720962000067],[105.83582672700004,20.958715684000026],[105.83899807600005,20.95712255600006],[105.84273611500004,20.95773859800005],[105.84415518300005,20.951196234000065],[105.85854055900006,20.95725862100005],[105.86035693300005,20.953511449000075],[105.86333601800004,20.95151270200006],[105.86627721500008,20.95082271900003],[105.86698877200007,20.951938851000023],[105.86999499100006,20.95002445800003],[105.87379577100006,20.95475809900006],[105.88605039000004,20.945608226000047],[105.90235939900003,20.967997843000035],[105.90871927000006,20.98154674600005],[105.90798464100004,20.987148431000037],[105.90036835900008,20.99432945700005]]]}},{"type":"Feature","properties":{"zone_id":"nam-tu-liem","district_name":"Nam Tu Liem","source_shape_id":"81297802B23821385944469"},"geometry":{"type":"Polygon","coordinates":[[[105.72962273500008,21.056524608000075],[105.72619409600009,21.052352703000054],[105.72838968400004,21.050435810000067],[105.72760490000007,21.048063513000045],[105.73236877900007,21.045821664000073],[105.73448520700003,21.040454367000052],[105.73402900600007,21.037743765000073],[105.73863212700007,21.03641036700003],[105.73908217300004,21.03416166100004],[105.73696524100006,21.03058242000003],[105.73881308900008,21.028529149000065],[105.73760959000003,21.02584192000006],[105.73914645300005,21.02496622500007],[105.73864200700007,21.02277236200007],[105.73678202300005,21.023189435000063],[105.73522963400006,21.02162780900005],[105.73431928100007,21.022587431000034],[105.73052388100007,21.01749585400006],[105.73378628100005,21.01544904800005],[105.73241500500006,21.01193631800004],[105.73319022600003,21.008387998000046],[105.73559701200008,21.00807495500004],[105.73423124000004,21.00398599500005],[105.73522008700007,20.99686121700006],[105.73549594500008,20.995852625000055],[105.73750127500006,20.996884496000064],[105.73863871200007,20.99474147500007],[105.74390449700007,20.995430331000023],[105.74468002400005,20.993645167000068],[105.75621225900005,20.98888033000003],[105.75805918800006,20.984453856000073],[105.75769292500007,20.98107053500007],[105.75962358500004,20.98232867400003],[105.75971925200008,20.980602530000056],[105.76245317500008,20.97910678200003],[105.76494917900004,20.980269452000073],[105.76600195700007,20.984373481000034],[105.76742963300006,20.983142110000074],[105.77131344400004,20.985761248000074],[105.77541563500006,20.98594208700007],[105.77801400700008,20.98413369700006],[105.78059440900006,20.98856472700004],[105.78353201600004,20.98668440700004],[105.78473750000006,20.98923266500003],[105.78719399500005,20.986846764000063],[105.79016808600005,20.986327403000075],[105.78490901600009,20.986303392000025],[105.78694959700005,20.98548880100003],[105.79451351600005,20.985474733000046],[105.79837958100006,20.988196199000072],[105.79543984200006,20.991306244000043],[105.79669955700007,20.99524026200004],[105.79536570700009,20.995662843000048],[105.79541972500004,20.99913327400003],[105.79267626200004,20.999395839000044],[105.79271122200004,21.001058147000037],[105.78914324600004,21.00706984900006],[105.79065458000008,21.008144943000048],[105.78840004400007,21.012112009000077],[105.78957506600005,21.013180981000062],[105.78328249000003,21.020196912000074],[105.78406410100007,21.029277966000052],[105.78182051300007,21.029126629000075],[105.78185313600005,21.031288047000032],[105.77347251400005,21.032610715000033],[105.77390910200006,21.03426332600003],[105.76859480000007,21.036013300000036],[105.76780791100003,21.039587229000063],[105.76149682200008,21.041692156000067],[105.75846446200006,21.037992994000035],[105.75329600900005,21.038100365000048],[105.74702379100006,21.042080458000044],[105.73884839500005,21.044967202000066],[105.73724538900007,21.04416847500005],[105.73317716000008,21.053991937000035],[105.72962273500008,21.056524608000075]]]}},{"type":"Feature","properties":{"zone_id":"thanh-xuan","district_name":"Thanh Xuan","source_shape_id":"81297802B66022953489908"},"geometry":{"type":"Polygon","coordinates":[[[105.79271122200004,21.001058147000037],[105.79267626200004,20.999395839000044],[105.79541972500004,20.99913327400003],[105.79536570700009,20.995662843000048],[105.79669955700007,20.99524026200004],[105.79543984200006,20.991306244000043],[105.79837958100006,20.988196199000072],[105.79451351600005,20.985474733000046],[105.79639751400003,20.98330089800004],[105.80109236000004,20.984705770000062],[105.79950625400005,20.986714215000063],[105.80099842700008,20.98777487500007],[105.80878734400005,20.983998830000075],[105.81085925600007,20.981203392000054],[105.81340455100008,20.980703611000024],[105.81568503800008,20.983216482000046],[105.81834694100007,20.980733646000033],[105.81928190000008,20.985017706000065],[105.82457887500004,20.988414396000053],[105.82393967200005,20.989756259000046],[105.82680529500004,20.99262096700005],[105.83057707700004,20.992700712000044],[105.83661228200003,20.98354781000006],[105.84105661000007,20.98549898400006],[105.84115576300007,20.99155906900006],[105.84270977400007,20.997292327000025],[105.82021584800003,21.003135823000036],[105.81819283500005,21.001673289000053],[105.81353920800007,21.008869725000068],[105.81112759900009,21.007015540000054],[105.80606843300006,21.00777491200006],[105.79271122200004,21.001058147000037]]]}}]}
